H1 CPF  1  DGF 2022 08 25 11  7371 larets     NONE      
H2   304206 5557    27944 2022 08 25 00 00 00 2022 09 01 00 00 00    30 1 1  0 0 0
H5  0.0650
H9
10 0 59816  25200.000000  0       2174415.163      -4514851.740      -4989635.543
10 0 59816  25230.000000  0       2189547.870      -4676917.350      -4830718.244
10 0 59816  25260.000000  0       2201774.791      -4834328.896      -4666895.943
10 0 59816  25290.000000  0       2211103.549      -4986913.274      -4498333.283
10 0 59816  25320.000000  0       2217545.422      -5134502.162      -4325199.831
10 0 59816  25350.000000  0       2221115.319      -5276932.212      -4147669.913
10 0 59816  25380.000000  0       2221831.742      -5414045.243      -3965922.450
10 0 59816  25410.000000  0       2219716.753      -5545688.422      -3780140.784
10 0 59816  25440.000000  0       2214795.931      -5671714.451      -3590512.499
10 0 59816  25470.000000  0       2207098.329      -5791981.735      -3397229.236
10 0 59816  25500.000000  0       2196656.423      -5906354.557      -3200486.508
10 0 59816  25530.000000  0       2183506.058      -6014703.242      -3000483.509
10 0 59816  25560.000000  0       2167686.391      -6116904.317      -2797422.908
10 0 59816  25590.000000  0       2149239.821      -6212840.666      -2591510.650
10 0 59816  25620.000000  0       2128211.928      -6302401.667      -2382955.741
10 0 59816  25650.000000  0       2104651.397      -6385483.333      -2171970.039
10 0 59816  25680.000000  0       2078609.943      -6461988.441      -1958768.041
10 0 59816  25710.000000  0       2050142.235      -6531826.651      -1743566.666
10 0 59816  25740.000000  0       2019305.811      -6594914.637      -1526585.037
10 0 59816  25770.000000  0       1986161.004      -6651176.197      -1308044.248
10 0 59816  25800.000000  0       1950770.841      -6700542.356      -1088167.132
10 0 59816  25830.000000  0       1913200.957      -6742951.453       -867178.017
10 0 59816  25860.000000  0       1873519.489      -6778349.217       -645302.500
10 0 59816  25890.000000  0       1831796.977      -6806688.845       -422767.211
10 0 59816  25920.000000  0       1788106.264      -6827931.063       -199799.577
10 0 59816  25950.000000  0       1742522.383      -6842044.186         23372.410
10 0 59816  25980.000000  0       1695122.457      -6849004.178        246520.435
10 0 59816  26010.000000  0       1645985.586      -6848794.688        469416.100
10 0 59816  26040.000000  0       1595192.732      -6841407.093        691831.171
10 0 59816  26070.000000  0       1542826.603      -6826840.517        913537.821
10 0 59816  26100.000000  0       1488971.529      -6805101.844       1134308.877
10 0 59816  26130.000000  0       1433713.349      -6776205.720       1353918.066
10 0 59816  26160.000000  0       1377139.281      -6740174.539       1572140.252
10 0 59816  26190.000000  0       1319337.804      -6697038.428       1788751.678
10 0 59816  26220.000000  0       1260398.535      -6646835.223       2003530.196
10 0 59816  26250.000000  0       1200412.095      -6589610.438       2216255.505
10 0 59816  26280.000000  0       1139469.990      -6525417.225       2426709.393
10 0 59816  26310.000000  0       1077664.472      -6454316.315       2634675.961
10 0 59816  26340.000000  0       1015088.416      -6376375.964       2839941.856
10 0 59816  26370.000000  0        951835.186      -6291671.875       3042296.493
10 0 59816  26400.000000  0        887998.508      -6200287.128       3241532.280
10 0 59816  26430.000000  0        823672.340      -6102312.086       3437444.835
10 0 59816  26460.000000  0        758950.740      -5997844.306       3629833.200
10 0 59816  26490.000000  0        693927.740      -5886988.429       3818500.053
10 0 59816  26520.000000  0        628697.217      -5769856.076       4003251.915
10 0 59816  26550.000000  0        563352.764      -5646565.723       4183899.349
10 0 59816  26580.000000  0        497987.562      -5517242.581       4360257.163
10 0 59816  26610.000000  0        432694.255      -5382018.450       4532144.604
10 0 59816  26640.000000  0        367564.823      -5241031.586       4699385.542
10 0 59816  26670.000000  0        302690.457      -5094426.538       4861808.654
10 0 59816  26700.000000  0        238161.441      -4942354.003       5019247.598
10 0 59816  26730.000000  0        174067.031      -4784970.652       5171541.184
10 0 59816  26760.000000  0        110495.337      -4622438.969       5318533.541
10 0 59816  26790.000000  0         47533.210      -4454927.071       5460074.276
10 0 59816  26820.000000  0        -14733.873      -4282608.520       5596018.629
10 0 59816  26850.000000  0        -76221.919      -4105662.139       5726227.618
10 0 59816  26880.000000  0       -136848.529      -3924271.813       5850568.182
10 0 59816  26910.000000  0       -196533.003      -3738626.286       5968913.308
10 0 59816  26940.000000  0       -255196.444      -3548918.962       6081142.159
10 0 59816  26970.000000  0       -312761.857      -3355347.689       6187140.189
10 0 59816  27000.000000  0       -369154.249      -3158114.553       6286799.257
10 0 59816  27030.000000  0       -424300.719      -2957425.659       6380017.733
10 0 59816  27060.000000  0       -478130.555      -2753490.912       6466700.594
10 0 59816  27090.000000  0       -530575.314      -2546523.792       6546759.520
10 0 59816  27120.000000  0       -581568.912      -2336741.129       6620112.981
10 0 59816  27150.000000  0       -631047.702      -2124362.870       6686686.317
10 0 59816  27180.000000  0       -678950.550      -1909611.844       6746411.809
10 0 59816  27210.000000  0       -725218.910      -1692713.525       6799228.749
10 0 59816  27240.000000  0       -769796.896      -1473895.791       6845083.501
10 0 59816  27270.000000  0       -812631.345      -1253388.680       6883929.546
10 0 59816  27300.000000  0       -853671.878      -1031424.142       6915727.536
10 0 59816  27330.000000  0       -892870.968       -808235.793       6940445.325
10 0 59816  27360.000000  0       -930183.985       -584058.667       6958057.999
10 0 59816  27390.000000  0       -965569.250       -359128.962       6968547.899
10 0 59816  27420.000000  0       -998988.083       -133683.796       6971904.637
10 0 59816  27450.000000  0      -1030404.841         92039.051       6968125.105
10 0 59816  27480.000000  0      -1059786.959        317801.391       6957213.480
10 0 59816  27510.000000  0      -1087104.981        543364.877       6939181.214
10 0 59816  27540.000000  0      -1112332.589        768491.264       6914047.020
10 0 59816  27570.000000  0      -1135446.630        992942.652       6881836.856
10 0 59816  27600.000000  0      -1156427.137       1216481.750       6842583.899
10 0 59816  27630.000000  0      -1175257.341       1438872.120       6796328.507
10 0 59816  27660.000000  0      -1191923.691       1659878.435       6743118.186
10 0 59816  27690.000000  0      -1206415.856       1879266.731       6683007.533
10 0 59816  27720.000000  0      -1218726.730       2096804.653       6616058.186
10 0 59816  27750.000000  0      -1228852.433       2312261.704       6542338.764
10 0 59816  27780.000000  0      -1236792.307       2525409.494       6461924.796
10 0 59816  27810.000000  0      -1242548.907       2736021.983       6374898.649
10 0 59816  27840.000000  0      -1246127.987       2943875.732       6281349.443
10 0 59816  27870.000000  0      -1247538.485       3148750.134       6181372.964
10 0 59816  27900.000000  0      -1246792.501       3350427.661       6075071.562
10 0 59816  27930.000000  0      -1243905.265       3548694.090       5962554.054
10 0 59816  27960.000000  0      -1238895.110       3743338.738       5843935.612
10 0 59816  27990.000000  0      -1231783.439       3934154.690       5719337.657
10 0 59816  28020.000000  0      -1222594.685       4120939.029       5588887.730
10 0 59816  28050.000000  0      -1211356.268       4303493.055       5452719.365
10 0 59816  28080.000000  0      -1198098.554       4481622.503       5310971.957
10 0 59816  28110.000000  0      -1182854.800       4655137.757       5163790.620
10 0 59816  28140.000000  0      -1165661.106       4823854.062       5011326.035
10 0 59816  28170.000000  0      -1146556.351       4987591.724       4853734.302
10 0 59816  28200.000000  0      -1125582.131       5146176.312       4691176.772
10 0 59816  28230.000000  0      -1102782.696       5299438.846       4523819.884
10 0 59816  28260.000000  0      -1078204.872       5447215.981       4351834.990
10 0 59816  28290.000000  0      -1051897.997       5589350.182       4175398.187
10 0 59816  28320.000000  0      -1023913.843       5725689.900       3994690.140
10 0 59816  28350.000000  0       -994306.539       5856089.744       3809895.898
10 0 59816  28380.000000  0       -963132.492       5980410.646       3621204.704
10 0 59816  28410.000000  0       -930450.305       6098520.022       3428809.803
10 0 59816  28440.000000  0       -896320.684       6210291.925       3232908.232
10 0 59816  28470.000000  0       -860806.348       6315607.186       3033700.612
10 0 59816  28500.000000  0       -823971.933       6414353.542       2831390.933
10 0 59816  28530.000000  0       -785883.891       6506425.762       2626186.341
10 0 59816  28560.000000  0       -746610.387       6591725.753       2418296.921
10 0 59816  28590.000000  0       -706221.206       6670162.678       2207935.482
10 0 59816  28620.000000  0       -664787.642       6741653.053       1995317.330
10 0 59816  28650.000000  0       -622382.394       6806120.839       1780660.045
10 0 59816  28680.000000  0       -579079.458       6863497.528       1564183.246
10 0 59816  28710.000000  0       -534954.014       6913722.210       1346108.366
10 0 59816  28740.000000  0       -490082.320       6956741.646       1126658.416
10 0 59816  28770.000000  0       -444541.593       6992510.319        906057.755
99
